{
  "type": "FeatureCollection",
  "features": [
    {
      "type": "Feature",
      "properties": {
        "norad_id": 34556,
        "name": "COSMOS 2251 DEB",
        "group": "cosmos-2251-debris",
        "lat": 62.13145320849374,
        "lon": 143.82163003853967,
        "alt_km": 630.431821650991,
        "timestamp": "2025-12-19T18:58:41.980550+00:00",
        "meta_object_name": "COSMOS 2251 DEB",
        "meta_object_id": "1993-036US",
        "meta_epoch": "2025-12-19T07:24:32.315904",
        "meta_mean_motion": 14.77994131,
        "meta_eccentricity": 0.00069814,
        "meta_inclination": 74.0159,
        "meta_ra_of_asc_node": 111.9433,
        "meta_arg_of_pericenter": 172.2281,
        "meta_mean_anomaly": 210.9088,
        "meta_ephemeris_type": 0,
        "meta_classification_type": "U",
        "meta_norad_cat_id": 34556,
        "meta_element_set_no": 999,
        "meta_rev_at_epoch": 88426,
        "meta_bstar": 0.0014389337,
        "meta_mean_motion_dot": 0.00010369,
        "meta_mean_motion_ddot": 0,
        "tle_line1": "1 34556U 93036US  25353.30870736  .00010369  00000+0  14389-2 0  9991",
        "tle_line2": "2 34556  74.0159 111.9433 0006981 172.2281 210.9088 14.77994131884262"
      },
      "geometry": {
        "type": "Point",
        "coordinates": [
          143.82163003853967,
          62.13145320849374
        ]
      }
    },
    {
      "type": "Feature",
      "properties": {
        "norad_id": 34560,
        "name": "COSMOS 2251 DEB",
        "group": "cosmos-2251-debris",
        "lat": 3.5462248378323955,
        "lon": -52.62074477760351,
        "alt_km": 647.5613728249991,
        "timestamp": "2025-12-19T18:58:41.980560+00:00",
        "meta_object_name": "COSMOS 2251 DEB",
        "meta_object_id": "1993-036UW",
        "meta_epoch": "2025-12-18T20:01:55.517376",
        "meta_mean_motion": 14.72290219,
        "meta_eccentricity": 0.00142436,
        "meta_inclination": 74.0159,
        "meta_ra_of_asc_node": 130.259,
        "meta_arg_of_pericenter": 212.1833,
        "meta_mean_anomaly": 298.6419,
        "meta_ephemeris_type": 0,
        "meta_classification_type": "U",
        "meta_norad_cat_id": 34560,
        "meta_element_set_no": 999,
        "meta_rev_at_epoch": 88341,
        "meta_bstar": 0.0016989681,
        "meta_mean_motion_dot": 0.00010739,
        "meta_mean_motion_ddot": 0,
        "tle_line1": "1 34560U 93036UW  25352.83467034  .00010739  00000+0  16990-2 0  9997",
        "tle_line2": "2 34560  74.0159 130.2590 0014243 212.1833 298.6419 14.72290219883410"
      },
      "geometry": {
        "type": "Point",
        "coordinates": [
          -52.62074477760351,
          3.5462248378323955
        ]
      }
    },
    {
      "type": "Feature",
      "properties": {
        "norad_id": 34563,
        "name": "COSMOS 2251 DEB",
        "group": "cosmos-2251-debris",
        "lat": 8.944912903032378,
        "lon": -166.87330487092817,
        "alt_km": 737.5793786937802,
        "timestamp": "2025-12-19T18:58:41.980570+00:00",
        "meta_object_name": "COSMOS 2251 DEB",
        "meta_object_id": "1993-036UZ",
        "meta_epoch": "2025-12-19T06:12:30.254400",
        "meta_mean_motion": 14.46528877,
        "meta_eccentricity": 0.00138896,
        "meta_inclination": 74.0371,
        "meta_ra_of_asc_node": 191.5376,
        "meta_arg_of_pericenter": 285.1714,
        "meta_mean_anomaly": 194.4043,
        "meta_ephemeris_type": 0,
        "meta_classification_type": "U",
        "meta_norad_cat_id": 34563,
        "meta_element_set_no": 999,
        "meta_rev_at_epoch": 88291,
        "meta_bstar": 0.00030985174,
        "meta_mean_motion_dot": 1.09e-05,
        "meta_mean_motion_ddot": 0,
        "tle_line1": "1 34563U 93036UZ  25353.25868350  .00001090  00000+0  30985-3 0  9994",
        "tle_line2": "2 34563  74.0371 191.5376 0013889 285.1714 194.4043 14.46528877882919"
      },
      "geometry": {
        "type": "Point",
        "coordinates": [
          -166.87330487092817,
          8.944912903032378
        ]
      }
    },
    {
      "type": "Feature",
      "properties": {
        "norad_id": 34564,
        "name": "COSMOS 2251 DEB",
        "group": "cosmos-2251-debris",
        "lat": 0.4078455642482864,
        "lon": -134.91628416031716,
        "alt_km": 747.1824771846095,
        "timestamp": "2025-12-19T18:58:41.980580+00:00",
        "meta_object_name": "COSMOS 2251 DEB",
        "meta_object_id": "1993-036VA",
        "meta_epoch": "2025-12-19T01:11:56.569056",
        "meta_mean_motion": 14.4070084,
        "meta_eccentricity": 0.00192521,
        "meta_inclination": 74.0318,
        "meta_ra_of_asc_node": 226.3371,
        "meta_arg_of_pericenter": 329.3416,
        "meta_mean_anomaly": 150.4354,
        "meta_ephemeris_type": 0,
        "meta_classification_type": "U",
        "meta_norad_cat_id": 34564,
        "meta_element_set_no": 999,
        "meta_rev_at_epoch": 88097,
        "meta_bstar": 0.00019435218,
        "meta_mean_motion_dot": 5.96e-06,
        "meta_mean_motion_ddot": 0,
        "tle_line1": "1 34564U 93036VA  25353.04996029  .00000596  00000+0  19435-3 0  9994",
        "tle_line2": "2 34564  74.0318 226.3371 0019252 329.3416 150.4354 14.40700840880970"
      },
      "geometry": {
        "type": "Point",
        "coordinates": [
          -134.91628416031716,
          0.4078455642482864
        ]
      }
    },
    {
      "type": "Feature",
      "properties": {
        "norad_id": 34567,
        "name": "COSMOS 2251 DEB",
        "group": "cosmos-2251-debris",
        "lat": -15.293686095333152,
        "lon": 139.60217416395412,
        "alt_km": 848.2841945869814,
        "timestamp": "2025-12-19T18:58:41.980590+00:00",
        "meta_object_name": "COSMOS 2251 DEB",
        "meta_object_id": "1993-036VD",
        "meta_epoch": "2025-12-18T21:53:53.679840",
        "meta_mean_motion": 14.24023202,
        "meta_eccentricity": 0.0074285,
        "meta_inclination": 74.0405,
        "meta_ra_of_asc_node": 145.6706,
        "meta_arg_of_pericenter": 218.6375,
        "meta_mean_anomaly": 303.884,
        "meta_ephemeris_type": 0,
        "meta_classification_type": "U",
        "meta_norad_cat_id": 34567,
        "meta_element_set_no": 999,
        "meta_rev_at_epoch": 87212,
        "meta_bstar": 0.0001927977,
        "meta_mean_motion_dot": 4.3e-06,
        "meta_mean_motion_ddot": 0,
        "tle_line1": "1 34567U 93036VD  25352.91242685  .00000430  00000+0  19280-3 0  9999",
        "tle_line2": "2 34567  74.0405 145.6706 0074285 218.6375 303.8840 14.24023202872120"
      },
      "geometry": {
        "type": "Point",
        "coordinates": [
          139.60217416395412,
          -15.293686095333152
        ]
      }
    },
    {
      "type": "Feature",
      "properties": {
        "norad_id": 34569,
        "name": "COSMOS 2251 DEB",
        "group": "cosmos-2251-debris",
        "lat": 10.150437249265654,
        "lon": 2.4398616026849234,
        "alt_km": 914.5701433340264,
        "timestamp": "2025-12-19T18:58:41.980600+00:00",
        "meta_object_name": "COSMOS 2251 DEB",
        "meta_object_id": "1993-036VF",
        "meta_epoch": "2025-12-19T00:14:44.283264",
        "meta_mean_motion": 14.24767816,
        "meta_eccentricity": 0.01575762,
        "meta_inclination": 73.9892,
        "meta_ra_of_asc_node": 186.7976,
        "meta_arg_of_pericenter": 13.7528,
        "meta_mean_anomaly": 112.9889,
        "meta_ephemeris_type": 0,
        "meta_classification_type": "U",
        "meta_norad_cat_id": 34569,
        "meta_element_set_no": 999,
        "meta_rev_at_epoch": 87057,
        "meta_bstar": 0.00035668833,
        "meta_mean_motion_dot": 9.19e-06,
        "meta_mean_motion_ddot": 0,
        "tle_line1": "1 34569U 93036VF  25353.01023476  .00000919  00000+0  35669-3 0  9999",
        "tle_line2": "2 34569  73.9892 186.7976 0157576  13.7528 112.9889 14.24767816870579"
      },
      "geometry": {
        "type": "Point",
        "coordinates": [
          2.4398616026849234,
          10.150437249265654
        ]
      }
    },
    {
      "type": "Feature",
      "properties": {
        "norad_id": 34570,
        "name": "COSMOS 2251 DEB",
        "group": "cosmos-2251-debris",
        "lat": -8.710798908884467,
        "lon": 28.547939614056105,
        "alt_km": 924.2288045666346,
        "timestamp": "2025-12-19T18:58:41.980610+00:00",
        "meta_object_name": "COSMOS 2251 DEB",
        "meta_object_id": "1993-036VG",
        "meta_epoch": "2025-12-17T14:47:22.949376",
        "meta_mean_motion": 13.99827814,
        "meta_eccentricity": 0.01902686,
        "meta_inclination": 73.9566,
        "meta_ra_of_asc_node": 209.802,
        "meta_arg_of_pericenter": 91.1991,
        "meta_mean_anomaly": 301.5791,
        "meta_ephemeris_type": 0,
        "meta_classification_type": "U",
        "meta_norad_cat_id": 34570,
        "meta_element_set_no": 999,
        "meta_rev_at_epoch": 85669,
        "meta_bstar": 0.00040162603,
        "meta_mean_motion_dot": 6.66e-06,
        "meta_mean_motion_ddot": 0,
        "tle_line1": "1 34570U 93036VG  25351.61623784  .00000666  00000+0  40163-3 0  9997",
        "tle_line2": "2 34570  73.9566 209.8020 0190268  91.1991 301.5791 13.99827814856696"
      },
      "geometry": {
        "type": "Point",
        "coordinates": [
          28.547939614056105,
          -8.710798908884467
        ]
      }
    }
  ]
}